CCSDS_OMM_VERS = 2.0
CREATION_DATE  = 
ORIGINATOR     = 

OBJECT_NAME    = UNKNOWN
OBJECT_ID      = 
CENTER_NAME    = EARTH
REF_FRAME      = TEME
TIME_SYSTEM    = UTC
MEAN_ELEMENT_THEORY = SGP/SGP4

EPOCH          = 2026-01-13T11:04:12.775008
MEAN_MOTION    = 12.37487386
ECCENTRICITY   = .0340742
INCLINATION    = 101.8150
RA_OF_ASC_NODE = 13.3176
ARG_OF_PERICENTER = 86.3314
MEAN_ANOMALY   = 277.6641

EPHEMERIS_TYPE = 0
CLASSIFICATION_TYPE = U
NORAD_CAT_ID   = 81614
ELEMENT_SET_NO = 999
REV_AT_EPOCH   = 54190
BSTAR          = .33358E-1
MEAN_MOTION_DOT = .5225E-4
MEAN_MOTION_DDOT = 0

CCSDS_OMM_VERS = 2.0
CREATION_DATE  = 
ORIGINATOR     = 

OBJECT_NAME    = UNKNOWN
OBJECT_ID      = 
CENTER_NAME    = EARTH
REF_FRAME      = TEME
TIME_SYSTEM    = UTC
MEAN_ELEMENT_THEORY = SGP/SGP4

EPOCH          = 2026-01-20T08:10:11.261568
MEAN_MOTION    = 13.34202151
ECCENTRICITY   = .076898
INCLINATION    = 65.8293
RA_OF_ASC_NODE = 332.1689
ARG_OF_PERICENTER = 118.5593
MEAN_ANOMALY   = 249.5039

EPHEMERIS_TYPE = 0
CLASSIFICATION_TYPE = U
NORAD_CAT_ID   = 81615
ELEMENT_SET_NO = 999
REV_AT_EPOCH   = 58801
BSTAR          = .66786E-3
MEAN_MOTION_DOT = .1804E-4
MEAN_MOTION_DDOT = 0

CCSDS_OMM_VERS = 2.0
CREATION_DATE  = 
ORIGINATOR     = 

OBJECT_NAME    = UNKNOWN
OBJECT_ID      = 
CENTER_NAME    = EARTH
REF_FRAME      = TEME
TIME_SYSTEM    = UTC
MEAN_ELEMENT_THEORY = SGP/SGP4

EPOCH          = 2026-01-19T10:02:15.748512
MEAN_MOTION    = 12.57563958
ECCENTRICITY   = .0037189
INCLINATION    = 101.2608
RA_OF_ASC_NODE = 197.2290
ARG_OF_PERICENTER = 172.1547
MEAN_ANOMALY   = 188.0119

EPHEMERIS_TYPE = 0
CLASSIFICATION_TYPE = U
NORAD_CAT_ID   = 81617
ELEMENT_SET_NO = 999
REV_AT_EPOCH   = 55784
BSTAR          = .20692E-2
MEAN_MOTION_DOT = .306E-5
MEAN_MOTION_DDOT = 0

CCSDS_OMM_VERS = 2.0
CREATION_DATE  = 
ORIGINATOR     = 

OBJECT_NAME    = UNKNOWN
OBJECT_ID      = 
CENTER_NAME    = EARTH
REF_FRAME      = TEME
TIME_SYSTEM    = UTC
MEAN_ELEMENT_THEORY = SGP/SGP4

EPOCH          = 2026-01-15T03:40:57.524448
MEAN_MOTION    = 14.71574169
ECCENTRICITY   = .0068407
INCLINATION    = 66.9763
RA_OF_ASC_NODE = 74.5733
ARG_OF_PERICENTER = 211.6333
MEAN_ANOMALY   = 148.0670

EPHEMERIS_TYPE = 0
CLASSIFICATION_TYPE = U
NORAD_CAT_ID   = 81624
ELEMENT_SET_NO = 999
REV_AT_EPOCH   = 64462
BSTAR          = .4795E-3
MEAN_MOTION_DOT = .2986E-4
MEAN_MOTION_DDOT = 0

CCSDS_OMM_VERS = 2.0
CREATION_DATE  = 
ORIGINATOR     = 

OBJECT_NAME    = UNKNOWN
OBJECT_ID      = 
CENTER_NAME    = EARTH
REF_FRAME      = TEME
TIME_SYSTEM    = UTC
MEAN_ELEMENT_THEORY = SGP/SGP4

EPOCH          = 2026-01-20T08:36:48.636864
MEAN_MOTION    = 12.57241494
ECCENTRICITY   = .0976874
INCLINATION    = 65.8260
RA_OF_ASC_NODE = 52.9741
ARG_OF_PERICENTER = 61.8987
MEAN_ANOMALY   = 307.7266

EPHEMERIS_TYPE = 0
CLASSIFICATION_TYPE = U
NORAD_CAT_ID   = 81640
ELEMENT_SET_NO = 999
REV_AT_EPOCH   = 51493
BSTAR          = .3353E-3
MEAN_MOTION_DOT = .305E-5
MEAN_MOTION_DDOT = 0

CCSDS_OMM_VERS = 2.0
CREATION_DATE  = 
ORIGINATOR     = 

OBJECT_NAME    = UNKNOWN
OBJECT_ID      = 
CENTER_NAME    = EARTH
REF_FRAME      = TEME
TIME_SYSTEM    = UTC
MEAN_ELEMENT_THEORY = SGP/SGP4

EPOCH          = 2026-01-19T04:51:36.916704
MEAN_MOTION    = 13.44439879
ECCENTRICITY   = .0366475
INCLINATION    = 102.1454
RA_OF_ASC_NODE = 280.4635
ARG_OF_PERICENTER = 276.2805
MEAN_ANOMALY   = 240.6884

EPHEMERIS_TYPE = 0
CLASSIFICATION_TYPE = U
NORAD_CAT_ID   = 81652
ELEMENT_SET_NO = 999
REV_AT_EPOCH   = 58368
BSTAR          = .49642E-3
MEAN_MOTION_DOT = .369E-5
MEAN_MOTION_DDOT = 0

CCSDS_OMM_VERS = 2.0
CREATION_DATE  = 
ORIGINATOR     = 

OBJECT_NAME    = UNKNOWN
OBJECT_ID      = 
CENTER_NAME    = EARTH
REF_FRAME      = TEME
TIME_SYSTEM    = UTC
MEAN_ELEMENT_THEORY = SGP/SGP4

EPOCH          = 2026-01-20T13:16:56.607744
MEAN_MOTION    = 14.48227563
ECCENTRICITY   = .0016837
INCLINATION    = 74.0449
RA_OF_ASC_NODE = 323.9151
ARG_OF_PERICENTER = 248.4048
MEAN_ANOMALY   = 111.5318

EPHEMERIS_TYPE = 0
CLASSIFICATION_TYPE = U
NORAD_CAT_ID   = 81667
ELEMENT_SET_NO = 999
REV_AT_EPOCH   = 46226
BSTAR          = .17117E-2
MEAN_MOTION_DOT = .6377E-4
MEAN_MOTION_DDOT = 0

CCSDS_OMM_VERS = 2.0
CREATION_DATE  = 
ORIGINATOR     = 

OBJECT_NAME    = UNKNOWN
OBJECT_ID      = 
CENTER_NAME    = EARTH
REF_FRAME      = TEME
TIME_SYSTEM    = UTC
MEAN_ELEMENT_THEORY = SGP/SGP4

EPOCH          = 2026-01-13T01:10:07.129632
MEAN_MOTION    = 14.09999781
ECCENTRICITY   = .002903
INCLINATION    = 66.8233
RA_OF_ASC_NODE = 285.4302
ARG_OF_PERICENTER = 211.9398
MEAN_ANOMALY   = 162.1843

EPHEMERIS_TYPE = 0
CLASSIFICATION_TYPE = U
NORAD_CAT_ID   = 81674
ELEMENT_SET_NO = 999
REV_AT_EPOCH   = 61813
BSTAR          = .46078E-3
MEAN_MOTION_DOT = .736E-5
MEAN_MOTION_DDOT = 0

CCSDS_OMM_VERS = 2.0
CREATION_DATE  = 
ORIGINATOR     = 

OBJECT_NAME    = UNKNOWN
OBJECT_ID      = 
CENTER_NAME    = EARTH
REF_FRAME      = TEME
TIME_SYSTEM    = UTC
MEAN_ELEMENT_THEORY = SGP/SGP4

EPOCH          = 2026-01-20T01:17:24.093312
MEAN_MOTION    = 14.57630530
ECCENTRICITY   = .0022908
INCLINATION    = 81.2145
RA_OF_ASC_NODE = 254.9603
ARG_OF_PERICENTER = 178.7096
MEAN_ANOMALY   = 181.4165

EPHEMERIS_TYPE = 0
CLASSIFICATION_TYPE = U
NORAD_CAT_ID   = 81683
ELEMENT_SET_NO = 999
REV_AT_EPOCH   = 64144
BSTAR          = .4802E-3
MEAN_MOTION_DOT = .221E-4
MEAN_MOTION_DDOT = 0

CCSDS_OMM_VERS = 2.0
CREATION_DATE  = 
ORIGINATOR     = 

OBJECT_NAME    = UNKNOWN
OBJECT_ID      = 
CENTER_NAME    = EARTH
REF_FRAME      = TEME
TIME_SYSTEM    = UTC
MEAN_ELEMENT_THEORY = SGP/SGP4

EPOCH          = 2026-01-19T09:42:38.184768
MEAN_MOTION    = 12.25937419
ECCENTRICITY   = .036423
INCLINATION    = 101.0955
RA_OF_ASC_NODE = 81.7032
ARG_OF_PERICENTER = 12.3158
MEAN_ANOMALY   = 348.6521

EPHEMERIS_TYPE = 0
CLASSIFICATION_TYPE = U
NORAD_CAT_ID   = 81693
ELEMENT_SET_NO = 999
REV_AT_EPOCH   = 97238
BSTAR          = .53343E-2
MEAN_MOTION_DOT = .701E-5
MEAN_MOTION_DDOT = 0

CCSDS_OMM_VERS = 2.0
CREATION_DATE  = 
ORIGINATOR     = 

OBJECT_NAME    = UNKNOWN
OBJECT_ID      = 
CENTER_NAME    = EARTH
REF_FRAME      = TEME
TIME_SYSTEM    = UTC
MEAN_ELEMENT_THEORY = SGP/SGP4

EPOCH          = 2026-01-19T11:50:58.465536
MEAN_MOTION    = 14.40552633
ECCENTRICITY   = .0005272
INCLINATION    = 71.0012
RA_OF_ASC_NODE = 304.8688
ARG_OF_PERICENTER = 194.0299
MEAN_ANOMALY   = 166.0692

EPHEMERIS_TYPE = 0
CLASSIFICATION_TYPE = U
NORAD_CAT_ID   = 81745
ELEMENT_SET_NO = 999
REV_AT_EPOCH   = 63518
BSTAR          = .74314E-3
MEAN_MOTION_DOT = .2319E-4
MEAN_MOTION_DDOT = 0

CCSDS_OMM_VERS = 2.0
CREATION_DATE  = 
ORIGINATOR     = 

OBJECT_NAME    = UNKNOWN
OBJECT_ID      = 
CENTER_NAME    = EARTH
REF_FRAME      = TEME
TIME_SYSTEM    = UTC
MEAN_ELEMENT_THEORY = SGP/SGP4

EPOCH          = 2026-01-18T17:47:22.294464
MEAN_MOTION    = 14.41358226
ECCENTRICITY   = .0016472
INCLINATION    = 82.9184
RA_OF_ASC_NODE = 193.6085
ARG_OF_PERICENTER = 136.4129
MEAN_ANOMALY   = 223.8369

EPHEMERIS_TYPE = 0
CLASSIFICATION_TYPE = U
NORAD_CAT_ID   = 81775
ELEMENT_SET_NO = 999
REV_AT_EPOCH   = 63060
BSTAR          = .19985E-2
MEAN_MOTION_DOT = .6498E-4
MEAN_MOTION_DDOT = 0

